SL-4 R/B                
1 39679U 14021B   26038.55721994  .00014916  00000+0  33866-3 0  9992
2 39679  51.6066 124.1633 0098991 353.1764   6.7866 15.38223693651631
YAOGAN-29               
1 41038U 15069A   26038.63406596  .00001063  00000+0  13760-3 0  9994
2 41038  98.0174  66.9785 0002883  85.8122 274.3421 14.82962108551426
ASTRO-H (HITOMI)        
1 41337U 16012A   26038.62123396  .00004300  00000+0  25386-3 0  9992
2 41337  30.9982 190.5519 0009826  30.3282 329.7923 15.09785278547681
HXMT (HUIYAN)           
1 42758U 17034A   26038.62678459  .00007019  00000+0  35561-3 0  9996
2 42758  43.0133 183.7582 0030961  42.6894 317.6352 15.17063412477979
CZ-2C R/B               
1 43521U 18054D   26038.63395736  .00358452  50923-4  85084-3 0  9992
2 43521  35.1288 150.2012 0012568  11.8205 348.2828 15.95488445424079
SAOCOM 1A               
1 43641U 18076A   26038.58326101  .00000163  00000+0  26988-4 0  9991
2 43641  97.8868 227.1829 0001393  85.0988 275.0384 14.82156035396902
H-2A R/B                
1 43682U 18084L   26038.53204570  .00028385  00000+0  70325-3 0  9994
2 43682  98.8762 249.5058 0026302 126.7445 233.6217 15.40024300401132
SAOCOM 1B               
1 46265U 20059A   26038.61450442  .00001166  00000+0  15295-3 0  9992
2 46265  97.8865 226.3120 0001372  85.3930 274.7439 14.82165509294298
CSS (TIANHE)            
1 48274U 21035A   26038.37011297  .00025203  00000+0  31398-3 0  9993
2 48274  41.4682  32.4562 0005154  20.8908 339.2140 15.59318584272873
COSMOS 2550             
1 48865U 21056A   26038.71746977  .00004081  00000+0  12980-3 0  9997
2 48865  67.1445 131.5938 0008364 269.3889  90.6307 15.33826706258861
CZ-2C R/B               
1 52794U 22058K   26038.20889618  .00037530  00000+0  59165-3 0  9991
2 52794  50.1885 114.8234 0042336  71.3421 289.2139 15.52100302205397
