CCSDS_OMM_VERS = 2.0
CREATION_DATE  = 
ORIGINATOR     = 

OBJECT_NAME    = SL-4 R/B
OBJECT_ID      = 2014-021B
CENTER_NAME    = EARTH
REF_FRAME      = TEME
TIME_SYSTEM    = UTC
MEAN_ELEMENT_THEORY = SGP/SGP4

EPOCH          = 2026-02-07T13:22:23.802816
MEAN_MOTION    = 15.38223693
ECCENTRICITY   = .00989915
INCLINATION    = 51.6066
RA_OF_ASC_NODE = 124.1633
ARG_OF_PERICENTER = 353.1764
MEAN_ANOMALY   = 6.7866

EPHEMERIS_TYPE = 0
CLASSIFICATION_TYPE = U
NORAD_CAT_ID   = 39679
ELEMENT_SET_NO = 999
REV_AT_EPOCH   = 65163
BSTAR          = .33865627E-3
MEAN_MOTION_DOT = .14916E-3
MEAN_MOTION_DDOT = 0

CCSDS_OMM_VERS = 2.0
CREATION_DATE  = 
ORIGINATOR     = 

OBJECT_NAME    = YAOGAN-29
OBJECT_ID      = 2015-069A
CENTER_NAME    = EARTH
REF_FRAME      = TEME
TIME_SYSTEM    = UTC
MEAN_ELEMENT_THEORY = SGP/SGP4

EPOCH          = 2026-02-07T15:13:03.298944
MEAN_MOTION    = 14.82962108
ECCENTRICITY   = .00028837
INCLINATION    = 98.0174
RA_OF_ASC_NODE = 66.9785
ARG_OF_PERICENTER = 85.8122
MEAN_ANOMALY   = 274.3421

EPHEMERIS_TYPE = 0
CLASSIFICATION_TYPE = U
NORAD_CAT_ID   = 41038
ELEMENT_SET_NO = 999
REV_AT_EPOCH   = 55142
BSTAR          = .13760173E-3
MEAN_MOTION_DOT = .1063E-4
MEAN_MOTION_DDOT = 0

CCSDS_OMM_VERS = 2.0
CREATION_DATE  = 
ORIGINATOR     = 

OBJECT_NAME    = ASTRO-H (HITOMI)
OBJECT_ID      = 2016-012A
CENTER_NAME    = EARTH
REF_FRAME      = TEME
TIME_SYSTEM    = UTC
MEAN_ELEMENT_THEORY = SGP/SGP4

EPOCH          = 2026-02-07T14:54:34.614144
MEAN_MOTION    = 15.09785278
ECCENTRICITY   = .00098266
INCLINATION    = 30.9982
RA_OF_ASC_NODE = 190.5519
ARG_OF_PERICENTER = 30.3282
MEAN_ANOMALY   = 329.7923

EPHEMERIS_TYPE = 0
CLASSIFICATION_TYPE = U
NORAD_CAT_ID   = 41337
ELEMENT_SET_NO = 999
REV_AT_EPOCH   = 54768
BSTAR          = .25385708E-3
MEAN_MOTION_DOT = .43E-4
MEAN_MOTION_DDOT = 0

CCSDS_OMM_VERS = 2.0
CREATION_DATE  = 
ORIGINATOR     = 

OBJECT_NAME    = HXMT (HUIYAN)
OBJECT_ID      = 2017-034A
CENTER_NAME    = EARTH
REF_FRAME      = TEME
TIME_SYSTEM    = UTC
MEAN_ELEMENT_THEORY = SGP/SGP4

EPOCH          = 2026-02-07T15:02:34.188576
MEAN_MOTION    = 15.17063412
ECCENTRICITY   = .00309617
INCLINATION    = 43.0133
RA_OF_ASC_NODE = 183.7582
ARG_OF_PERICENTER = 42.6894
MEAN_ANOMALY   = 317.6352

EPHEMERIS_TYPE = 0
CLASSIFICATION_TYPE = U
NORAD_CAT_ID   = 42758
ELEMENT_SET_NO = 999
REV_AT_EPOCH   = 47797
BSTAR          = .35561337E-3
MEAN_MOTION_DOT = .7019E-4
MEAN_MOTION_DDOT = 0

CCSDS_OMM_VERS = 2.0
CREATION_DATE  = 
ORIGINATOR     = 

OBJECT_NAME    = CZ-2C R/B
OBJECT_ID      = 2018-054D
CENTER_NAME    = EARTH
REF_FRAME      = TEME
TIME_SYSTEM    = UTC
MEAN_ELEMENT_THEORY = SGP/SGP4

EPOCH          = 2026-02-07T15:12:53.915904
MEAN_MOTION    = 15.95488445
ECCENTRICITY   = .00125689
INCLINATION    = 35.1288
RA_OF_ASC_NODE = 150.2012
ARG_OF_PERICENTER = 11.8205
MEAN_ANOMALY   = 348.2828

EPHEMERIS_TYPE = 0
CLASSIFICATION_TYPE = U
NORAD_CAT_ID   = 43521
ELEMENT_SET_NO = 999
REV_AT_EPOCH   = 42407
BSTAR          = .85083737E-3
MEAN_MOTION_DOT = .358452E-2
MEAN_MOTION_DDOT = .50922812E-4

CCSDS_OMM_VERS = 2.0
CREATION_DATE  = 
ORIGINATOR     = 

OBJECT_NAME    = SAOCOM 1A
OBJECT_ID      = 2018-076A
CENTER_NAME    = EARTH
REF_FRAME      = TEME
TIME_SYSTEM    = UTC
MEAN_ELEMENT_THEORY = SGP/SGP4

EPOCH          = 2026-02-07T13:59:53.751264
MEAN_MOTION    = 14.82156035
ECCENTRICITY   = .00013938
INCLINATION    = 97.8868
RA_OF_ASC_NODE = 227.1829
ARG_OF_PERICENTER = 85.0988
MEAN_ANOMALY   = 275.0384

EPHEMERIS_TYPE = 0
CLASSIFICATION_TYPE = U
NORAD_CAT_ID   = 43641
ELEMENT_SET_NO = 999
REV_AT_EPOCH   = 39690
BSTAR          = .26987677E-4
MEAN_MOTION_DOT = .163E-5
MEAN_MOTION_DDOT = 0

CCSDS_OMM_VERS = 2.0
CREATION_DATE  = 
ORIGINATOR     = 

OBJECT_NAME    = H-2A R/B
OBJECT_ID      = 2018-084L
CENTER_NAME    = EARTH
REF_FRAME      = TEME
TIME_SYSTEM    = UTC
MEAN_ELEMENT_THEORY = SGP/SGP4

EPOCH          = 2026-02-07T12:46:08.748480
MEAN_MOTION    = 15.40024300
ECCENTRICITY   = .00263026
INCLINATION    = 98.8762
RA_OF_ASC_NODE = 249.5058
ARG_OF_PERICENTER = 126.7445
MEAN_ANOMALY   = 233.6217

EPHEMERIS_TYPE = 0
CLASSIFICATION_TYPE = U
NORAD_CAT_ID   = 43682
ELEMENT_SET_NO = 999
REV_AT_EPOCH   = 40113
BSTAR          = .70324932E-3
MEAN_MOTION_DOT = .28385E-3
MEAN_MOTION_DDOT = 0

CCSDS_OMM_VERS = 2.0
CREATION_DATE  = 
ORIGINATOR     = 

OBJECT_NAME    = SAOCOM 1B
OBJECT_ID      = 2020-059A
CENTER_NAME    = EARTH
REF_FRAME      = TEME
TIME_SYSTEM    = UTC
MEAN_ELEMENT_THEORY = SGP/SGP4

EPOCH          = 2026-02-07T14:44:53.181888
MEAN_MOTION    = 14.82165509
ECCENTRICITY   = .00013722
INCLINATION    = 97.8865
RA_OF_ASC_NODE = 226.3120
ARG_OF_PERICENTER = 85.3930
MEAN_ANOMALY   = 274.7439

EPHEMERIS_TYPE = 0
CLASSIFICATION_TYPE = U
NORAD_CAT_ID   = 46265
ELEMENT_SET_NO = 999
REV_AT_EPOCH   = 29429
BSTAR          = .152952E-3
MEAN_MOTION_DOT = .1166E-4
MEAN_MOTION_DDOT = 0

CCSDS_OMM_VERS = 2.0
CREATION_DATE  = 
ORIGINATOR     = 

OBJECT_NAME    = CSS (TIANHE)
OBJECT_ID      = 2021-035A
CENTER_NAME    = EARTH
REF_FRAME      = TEME
TIME_SYSTEM    = UTC
MEAN_ELEMENT_THEORY = SGP/SGP4

EPOCH          = 2026-02-07T08:52:57.760608
MEAN_MOTION    = 15.59318584
ECCENTRICITY   = .00051547
INCLINATION    = 41.4682
RA_OF_ASC_NODE = 32.4562
ARG_OF_PERICENTER = 20.8908
MEAN_ANOMALY   = 339.2140

EPHEMERIS_TYPE = 0
CLASSIFICATION_TYPE = U
NORAD_CAT_ID   = 48274
ELEMENT_SET_NO = 999
REV_AT_EPOCH   = 27287
BSTAR          = .3139778E-3
MEAN_MOTION_DOT = .25203E-3
MEAN_MOTION_DDOT = 0

CCSDS_OMM_VERS = 2.0
CREATION_DATE  = 
ORIGINATOR     = 

OBJECT_NAME    = COSMOS 2550
OBJECT_ID      = 2021-056A
CENTER_NAME    = EARTH
REF_FRAME      = TEME
TIME_SYSTEM    = UTC
MEAN_ELEMENT_THEORY = SGP/SGP4

EPOCH          = 2026-02-07T17:13:09.388128
MEAN_MOTION    = 15.33826706
ECCENTRICITY   = .0008364
INCLINATION    = 67.1445
RA_OF_ASC_NODE = 131.5938
ARG_OF_PERICENTER = 269.3889
MEAN_ANOMALY   = 90.6307

EPHEMERIS_TYPE = 0
CLASSIFICATION_TYPE = U
NORAD_CAT_ID   = 48865
ELEMENT_SET_NO = 999
REV_AT_EPOCH   = 25886
BSTAR          = .1298E-3
MEAN_MOTION_DOT = .4081E-4
MEAN_MOTION_DDOT = 0

CCSDS_OMM_VERS = 2.0
CREATION_DATE  = 
ORIGINATOR     = 

OBJECT_NAME    = CZ-2C R/B
OBJECT_ID      = 2022-058K
CENTER_NAME    = EARTH
REF_FRAME      = TEME
TIME_SYSTEM    = UTC
MEAN_ELEMENT_THEORY = SGP/SGP4

EPOCH          = 2026-02-07T05:00:48.629952
MEAN_MOTION    = 15.52100302
ECCENTRICITY   = .00423363
INCLINATION    = 50.1885
RA_OF_ASC_NODE = 114.8234
ARG_OF_PERICENTER = 71.3421
MEAN_ANOMALY   = 289.2139

EPHEMERIS_TYPE = 0
CLASSIFICATION_TYPE = U
NORAD_CAT_ID   = 52794
ELEMENT_SET_NO = 999
REV_AT_EPOCH   = 20539
BSTAR          = .59165059E-3
MEAN_MOTION_DOT = .3753E-3
MEAN_MOTION_DDOT = 0

